LANDSAT 8               
1 39084U 13008A   20146.87469677  .00000022  00000-0  15057-4 0  9999
2 39084  98.2263 216.8525 0001139  77.6419 282.4897 14.57108702387411
